IRIDIUM 106             
1 41917U 17003A   25029.50632326  .00000226  00000+0  73779-4 0  9994
2 41917  86.3979 299.0061 0002444  88.2956 271.8519 14.34218289421018
IRIDIUM 103             
1 41918U 17003B   25029.49363513  .00000336  00000+0  11302-3 0  9997
2 41918  86.3978 298.9120 0001854 105.7466 254.3934 14.34217402421043
IRIDIUM 109             
1 41919U 17003C   25029.49997442  .00000655  00000+0  22692-3 0  9990
2 41919  86.3979 298.9610 0001906  83.3248 276.8164 14.34222202421022
IRIDIUM 102             
1 41920U 17003D   25029.11942389  .00000589  00000+0  20324-3 0  9997
2 41920  86.3977 299.0544 0002185  83.3251 276.8193 14.34219855421037
IRIDIUM 105             
1 41921U 17003E   25029.36923296  .00000621  00000+0  21458-3 0  9997
2 41921  86.3945 267.3676 0001975  88.9738 271.1684 14.34220233422928
IRIDIUM 104             
1 41922U 17003F   25029.48095091  .00000091  00000+0  25418-4 0  9996
2 41922  86.3978 298.9382 0001557  86.3173 273.8200 14.34218008421075
IRIDIUM 114             
1 41923U 17003G   25029.48728914  .00000664  00000+0  23019-3 0  9994
2 41923  86.3977 298.9207 0002026  91.0303 269.1125 14.34213758421072
IRIDIUM 108             
1 41924U 17003H   25029.09697341  .00000338  00000+0  11350-3 0  9994
2 41924  86.3937 267.3916 0002246  86.2022 273.9431 14.34218251422879
